C/2019 B3 (PANSTARRS),h,01/19.6987/2021,66.5363,358.4208,263.8856,1.002899,6.823828,2000,5.5,4.0
# From MPEC 2020-AA5
A/2019 C1,e,36.0175,212.3956,319.1943,817.2991,0.0000422,0.99194762,0.0000,05/05.7612/2020,2000,g 10.0,4.0
# From MPC118842
C/2019 D1 (Flewelling),e,34.0937,231.7197,70.4948,139.6560,0.0005972,0.98870128,0.0000,05/11.8677/2019,2000,g 13.0,4.0
# From MPC119997
C/2019 E3 (ATLAS),h,11/11.8398/2023,84.2829,347.2277,280.5913,1.004779,10.315791,2000,2.5,4.0
# From MPC119997
C/2019 F1 (ATLAS-Africano),h,06/22.7513/2021,54.1745,38.7259,251.1055,1.003462,3.596127,2000,5.5,4.0
# From MPC119997
C/2019 F2 (ATLAS),e,19.1868,175.8454,11.0133,16.61696,0.0145505,0.86559486,3.8560,05/31.0/2020,2000,g 12.0,4.0
# From MPEC 2020-AA5
A/2019 G2,e,159.2109,208.1478,82.6512,723.4581,0.0000507,0.99683287,0.0000,12/10.0524/2019,2000,g 16.5,2.0
# From MPC118094
A/2019 G4,h,09/15.8418/2018,138.3846,130.4650,287.8822,1.000895,5.858845,2000,13.0,2.0
# From MPC114607
P/2019 GG21 (PANSTARRS),e,6.0837,340.5961,208.3831,7.467852,0.0482959,0.47295556,18.6757,05/31.0/2020,2000,g 12.0,4.0
# From MPC115885
C/2019 H1 (NEOWISE),e,104.5788,269.1862,19.2965,228.8771,0.0002846,0.99193792,0.0000,04/27.7492/2019,2000,g 15.5,4.0
# From MPC118842
C/2019 J1 (Lemmon),e,24.5504,98.0873,167.7783,70.09369,0.0016795,0.96463783,0.7016,05/31.0/2020,2000,g 12.0,4.0
# From MPC115885
C/2019 J2 (Palomar),e,105.1368,25.4717,98.7091,679.6786,0.0000556,0.99745898,0.0000,07/19.7144/2019,2000,g 13.0,4.0
# From MPC117071
C/2019 J3 (ATLAS),e,131.4138,270.5176,16.5550,58805,0.0000001,0.99995963,0.0000,08/01.8834/2019,2000,g 13.5,4.0
# From MPC117071
C/2019 JU6 (ATLAS),e,148.2944,21.7368,94.8747,328.3469,0.0001657,0.99377153,0.0000,05/31.8599/2019,2000,g 14.5,4.0
# From MPC119997
C/2019 K1 (ATLAS),e,87.1494,73.3752,265.7084,17135,0.0000004,0.99988254,0.0000,02/12.9678/2020,2000,g 10.0,4.0
# From MPC119997
C/2019 K4 (Ye),e,105.3034,180.1649,139.7735,1899,0.0000119,0.99880999,0.0000,06/16.3987/2019,2000,g 12.5,4.0
# From MPC119997
C/2019 K5 (Young),e,15.3145,177.1790,174.9345,154.2822,0.0005143,0.98680912,0.0000,06/22.7876/2019,2000,g 13.0,4.0
# From MPC117071
A/2019 K6,e,132.3734,42.9399,187.6160,1516,0.0000167,0.99740813,0.0000,05/20.1744/2020,2000,g 13.6,2.0
# From MPC118095
C/2019 K7 (Smith),h,06/16.9060/2020,103.5315,307.9242,27.2926,1.001414,4.474930,2000,6.2,4.0
# From MPC119997
C/2019 K8 (ATLAS),e,93.2236,291.0442,85.3656,1784,0.0000131,0.99820910,0.0000,07/21.2924/2019,2000,g 11.5,4.0
# From MPC118095
C/2019 L1 (PANSTARRS),e,9.9934,254.4071,49.9331,9.833190,0.0319641,0.70605423,9.3875,05/31.0/2020,2000,g 13.5,4.0
# From MPC115886
C/2019 L2 (NEOWISE),e,152.1791,12.5868,18.7442,24.90171,0.0079316,0.93495723,3.3717,05/31.0/2020,2000,g 16.0,4.0
# From MPC119997
C/2019 L3 (ATLAS),h,01/09.8494/2022,48.3663,290.7835,171.6608,1.000514,3.553280,2000,4.5,4.0
# From MPC118095
C/2019 LB7 (Kleyna),e,164.2508,3.4143,336.1139,35.51487,0.0046568,0.93001790,2.0049,05/31.0/2020,2000,g 17.0,4.0
# From MPC118843
P/2019 M2 (ATLAS),e,12.2820,307.5977,332.5424,3.025878,0.1872522,0.64847120,64.2892,05/31.0/2020,2000,g 21.2,4.0
# From MPC118095
C/2019 M3 (ATLAS),h,01/02.9822/2019,99.4436,154.8958,87.9426,1.001877,2.418438,2000,12.2,4.0
# From MPC119997
C/2019 N1 (ATLAS),e,82.4251,13.5751,193.4459,21966,0.0000003,0.99992240,0.0000,12/01.7908/2020,2000,g  7.5,4.0
# From MPEC 2020-AA5
A/2019 O2,e,93.2860,48.3359,129.6630,57.44590,0.0022637,0.83146109,357.6422,05/31.0/2020,2000,g  9.5,2.0
# From MPC118843
A/2019 O3,h,03/07.4600/2021,89.8124,300.3789,60.0238,1.001571,8.818910,2000,10.0,2.0
# From MPC117072
A/2019 O4,e,115.0855,354.9204,61.8131,32.85306,0.0052341,0.88906700,0.5812,05/31.0/2020,2000,g 15.5,2.0
# From MPEC 2020-AA5
A/2019 Q1,h,07/19.7829/2020,155.7199,42.3362,55.9305,1.000379,4.996685,2000,12.5,2.0
# From MPC117072
A/2019 Q2,e,159.0229,188.0234,176.3014,57.97930,0.0022325,0.97831815,0.0000,07/22.3753/2019,2000,g 18.0,2.0
# From MPC117072
C/2019 Q3 (PANSTARRS),h,08/21.0724/2018,65.5296,151.3247,152.6501,1.004525,7.251321,2000,8.5,4.0
# From MPC117072
P/2019 S2 (PANSTARRS),e,10.4732,93.1261,216.7658,4.734711,0.0956674,0.20680642,44.4867,05/31.0/2020,2000,g 13.5,4.0
# From MPC118096
P/2019 S3 (PANSTARRS),e,8.6927,150.1644,212.9665,3.414080,0.1562405,0.47078781,43.5708,05/31.0/2020,2000,g 18.3,4.0
# From MPEC 2020-AA5
A/2019 S4,e,92.0235,63.1672,71.3575,237.6170,0.0002691,0.98551598,0.0000,04/07.9526/2020,2000,g 14.5,2.0
# From MPC118843
A/2019 T1,e,120.8686,6.9496,91.0030,38.22432,0.0041706,0.88798045,359.0487,05/31.0/2020,2000,g 13.0,2.0
# From MPEC 2020-AA5
A/2019 T2,e,111.4657,155.6390,239.3935,2047,0.0000106,0.99870750,0.0000,04/22.3053/2021,2000,g 12.5,2.0
# From MPC119998
C/2019 T3 (ATLAS),e,121.8627,139.5168,112.2572,8329,0.0000013,0.99928608,0.0000,03/02.4654/2021,2000,g  6.8,4.0
# From MPC119998
C/2019 T4 (ATLAS),e,53.6164,199.9734,351.2119,1026,0.0000300,0.99586434,0.0000,06/09.3576/2022,2000,g  5.0,4.0
# From MPC119998
P/2019 T5 (ATLAS),e,33.4228,247.6953,189.6107,8.013683,0.0434466,0.80923137,13.2022,05/31.0/2020,2000,g 15.0,4.0
# From MPC119998
P/2019 T6 (PANSTARRS),e,18.6963,71.3104,328.9065,5.433123,0.0778269,0.62234488,15.9734,05/31.0/2020,2000,g 15.5,4.0
# From MPC118096
P/2019 U4 (PANSTARRS),e,11.6906,200.0338,180.9579,3.520141,0.1492327,0.47531798,38.1505,05/31.0/2020,2000,g 19.0,4.0
# From MPC118844
A/2019 U5,h,03/30.4399/2023,113.5266,2.6970,181.6176,1.000416,3.620955,2000,10.0,2.0
# From MPEC 2020-AA5
A/2019 U6,e,61.0016,235.7059,329.6603,433.0523,0.0001094,0.99788881,0.0000,06/18.8229/2020,2000,g 14.5,2.0
# From MPC119998
C/2019 V1 (Borisov),e,61.8639,83.2060,51.1981,2407,0.0000083,0.99871309,0.0000,07/16.5695/2020,2000,g 11.0,4.0
# From MPC119998
P/2019 V2 (Groeller),e,11.8029,189.1673,336.3648,7.517290,0.0478203,0.33266943,353.0652,05/31.0/2020,2000,g 10.0,4.0
# From MPC119998
P/2019 W1 (PANSTARRS),e,23.4601,35.4165,18.7231,4.550407,0.1015380,0.26611411,39.5150,05/31.0/2020,2000,g 12.9,4.0
# From MPC119998
P/2019 X1 (Pruyne),e,10.2448,43.7153,36.6254,6.177390,0.0641943,0.30337391,20.2854,05/31.0/2020,2000,g 10.4,4.0
# From MPC xxxxx
C/2019 Y1 (ATLAS),e,73.3484,31.3659,57.4980,232.5930,0.0002778,0.99639792,0.0000,03/15.5622/2020,2000,g 14.5,4.0
# From MPC119999
P/2019 Y2 (Fuls),e,4.9020,81.0806,91.7275,3.528630,0.1486945,0.39613865,18.0461,05/31.0/2020,2000,g 13.2,4.0
# From MPEC 2020-C98
P/2019 Y3 (Catalina),e,24.6356,139.3795,2.2816,2.998424,0.1898299,0.69579335,32.1831,05/31.0/2020,2000,g 18.5,4.0
# From MPEC 2020-HN5
C/2019 Y4 (ATLAS),e,45.3801,120.5684,177.4114,323.9298,0.0001691,0.99921944,0.0000,05/31.0173/2020,2000,g 12.0,4.0
# From MPEC 2020-HN5
C/2019 Y4-A (ATLAS),h,05/31.0498/2020,46.2387,121.2272,177.0816,1.003866,0.249299,2000,12.0,6.0
# From MPEC 2020-HN5
C/2019 Y4-B (ATLAS),e,45.3119,120.5318,177.4349,184.7860,0.0003924,0.99862989,0.0000,05/31.0206/2020,2000,g 12.0,6.0
# From MPEC 2020-HN5
C/2019 Y4-C (ATLAS),e,43.9003,119.6341,178.0585,20.04236,0.0109845,0.98705852,0.0000,05/31.0496/2020,2000,g 12.5,6.0
# From MPEC 2020-HN5
C/2019 Y4-D (ATLAS),e,45.3859,121.0038,177.5802,31.96286,0.0054543,0.99210491,0.0000,05/31.1548/2020,2000,g 14.0,6.0
# From MPEC 2020-HN5
A/2019 Y5,e,82.8350,51.7767,303.5018,802.1873,0.0000434,0.99387364,0.0000,08/18.1778/2019,2000,g 14.0,2.0
# From MPEC 2020-HN5
A/2020 A1,e,149.0483,119.2787,302.7144,25.96346,0.0074501,0.93563621,1.3426,05/31.0/2020,2000,g 18.0,2.0
# From MPEC 2020-HN5
C/2020 A2 (Iwamoto),e,120.7506,286.3790,68.2119,1125,0.0000261,0.99913086,0.0000,01/08.3239/2020,2000,g 13.5,4.0
# From MPEC 2020-HN5
C/2020 A3 (ATLAS),h,06/29.6311/2019,146.7026,120.7808,268.4753,1.000289,5.768763,2000,8.0,4.0
# From MPEC 2020-HN5
A/2020 B1,e,18.5124,310.0347,154.7853,52.10748,0.0026203,0.96646086,0.4116,05/31.0/2020,2000,g 21.0,2.0
# From MPEC 2020-HN5
C/2020 B2 (Lemmon),e,55.7379,354.3208,143.7576,69.58403,0.0016980,0.96020401,0.2128,05/31.0/2020,2000,g 10.0,4.0
# From MPEC 2020-HN5
C/2020 B3 (Rankin),e,20.7033,185.8247,325.0902,1784,0.0000131,0.99812535,0.0000,10/19.8691/2019,2000,g 13.0,4.0
# From MPEC 2020-HN5
C/2020 F2 (ATLAS),h,07/16.8008/2022,163.5732,250.2491,48.3729,1.001862,8.817038,2000,4.5,4.0
# From MPEC 2020-HN5
C/2020 F3 (NEOWISE),e,128.9369,61.0138,37.2654,384.6579,0.0001306,0.99923354,0.0000,07/03.6862/2020,2000,g 12.5,3.2
# From MPEC 2020-HN5
C/2020 F5 (MASTER),h,03/24.7894/2021,51.7221,350.7889,311.1565,1.011802,4.321608,2000,6.5,3.2
# From MPEC 2020-HN5
C/2020 F6 (PANSTARRS),e,174.5813,207.8802,344.5933,377.9683,0.0001341,0.99071082,0.0000,04/11.5744/2020,2000,g 14.5,2.8
# From MPEC 2020-HN5
A/2020 F7,e,93.9454,321.8865,228.0023,795.5602,0.0000439,0.99329913,0.0000,11/14.1880/2021,2000,g 12.0,2.0
# From MPC xxxxx
C/2020 F8 (SWAN),e,110.7969,260.0085,68.2240,271.9392,0.0002198,0.99841726,0.0000,05/27.5655/2020,2000,g 10.0,4.0
# From MPEC 2020-HN5
P/2020 G1 (Pimentel),e,18.4673,240.1147,207.6291,3.591465,0.1448094,0.85918607,10.8028,05/31.0/2020,2000,g 17.0,4.0
# From MPEC 2020-HN5
C/2020 H2 (Pruyne),h,04/27.6343/2020,125.0448,277.7005,26.7971,1.001868,0.833771,2000,18.0,4.0
# From MPEC 2020-HM1
C/2020 H3 (Wierzchos),p,06/05.7162/2020,62.5292,30.4456,2.300288,270.6227,2000,13.5,4.0
# From MPC xxxxx
C/2020 H4 (Leonard),e,84.5607,307.7645,117.4815,60.83621,0.0020771,0.98475471,0.0000,08/29.2747/2020,2000,g 14.5,4.0
# From MPC xxxxx
C/2020 H5 (Robinson),e,69.9504,210.9167,317.5989,155.6425,0.0005076,0.93962274,359.9996,06/15.0/2020,2000,g  5.0,4.0
# From MPC xxxxx
C/2020 H6 (ATLAS),p,10/01.2940/2021,79.8308,20.5303,4.689084,213.8053,2000,7.0,4.0
# From MPEC 2020-FB7
C/2020 H7 (Lemmon),e,135.9235,323.5194,82.6780,1405,0.0000187,0.99685380,0.0000,06/02.9510/2020,2000,g 11.0,4.0
# From MPEC 2020-FB7
C/2020 H8 (PANSTARRS),p,06/06.7207/2020,99.7116,129.2192,4.678446,68.3225,2000,10.5,4.0
# From MPEC 2020-J37
C/2020 J1 (SONEAR),p,04/15.7308/2021,142.1690,344.4493,3.256464,227.8566,2000,7.0,4.0
# From MPEC 2020-FB7
C/2020 K1 (PANSTARRS),p,05/08.6840/2023,89.6421,213.8786,3.078872,94.4049,2000,5.5,4.0
